start=new Date('2022-07-24T00:00:00.000Z').valueOf();
sats=[{"LAUNCH_DATE":"2020-10-24","ELEMENT_SET_NO":"999","OBJECT_TYPE":"PAYLOAD","DECAY_DATE":null,"OBJECT_NAME":"STARLINK-1926","CLASSIFICATION_TYPE":"U","OBJECT_ID":"2020-074U","INCLINATION":"53.0531","ARG_OF_PERICENTER":"59.8834","RCS_SIZE":"LARGE","NORAD_CAT_ID":"46757","SEMIMAJOR_AXIS":"6925.354","COUNTRY_CODE":"US","GP_ID":"208735729","ECCENTRICITY":"0.00018640","MEAN_MOTION_DOT":"0.00000213","MEAN_MOTION_DDOT":"0.0000000000000","PERIAPSIS":"545.929","CENTER_NAME":"EARTH","EPHEMERIS_TYPE":"0","TLE_LINE2":"2 46757  53.0531 154.3368 0001864  59.8834 300.2340 15.06398083 96914","MEAN_ELEMENT_THEORY":"SGP4","PERIOD":"95.592","MEAN_ANOMALY":"300.2340","RA_OF_ASC_NODE":"154.3368","TLE_LINE1":"1 46757U 20074U   22204.84016372  .00000213  00000-0  33190-4 0  9999","REF_FRAME":"TEME","APOAPSIS":"548.510","FILE":"3520602","TIME_SYSTEM":"UTC","BSTAR":"0.00003319000000","MEAN_MOTION":"15.06398083","REV_AT_EPOCH":"9691","SITE":"AFETR","EPOCH":"2022-07-23T20:09:50.145408"},{"DECAY_DATE":null,"OBJECT_NAME":"STARLINK-1928","CLASSIFICATION_TYPE":"U","LAUNCH_DATE":"2020-10-24","OBJECT_TYPE":"PAYLOAD","ELEMENT_SET_NO":"999","SEMIMAJOR_AXIS":"6925.364","GP_ID":"208735979","COUNTRY_CODE":"US","INCLINATION":"53.0535","OBJECT_ID":"2020-074V","RCS_SIZE":"LARGE","NORAD_CAT_ID":"46758","ARG_OF_PERICENTER":"54.4452","CENTER_NAME":"EARTH","MEAN_MOTION_DDOT":"0.0000000000000","PERIAPSIS":"545.870","EPHEMERIS_TYPE":"0","MEAN_ELEMENT_THEORY":"SGP4","PERIOD":"95.592","TLE_LINE2":"2 46758  53.0535 154.0743 0001962  54.4452 305.6719 15.06395059 96929","TLE_LINE1":"1 46758U 20074V   22204.84382781  .00000247  00000-0  35514-4 0  9999","RA_OF_ASC_NODE":"154.0743","MEAN_ANOMALY":"305.6719","MEAN_MOTION_DOT":"0.00000247","ECCENTRICITY":"0.00019620","BSTAR":"0.00003551400000","TIME_SYSTEM":"UTC","MEAN_MOTION":"15.06395059","SITE":"AFETR","REV_AT_EPOCH":"9692","EPOCH":"2022-07-23T20:15:06.722784","REF_FRAME":"TEME","FILE":"3520602","APOAPSIS":"548.587"},{"ECCENTRICITY":"0.00014730","MEAN_MOTION_DOT":"0.00003773","TLE_LINE2":"2 46759  53.0544 166.1993 0001473  60.6060 299.5076 15.06403396 96709","MEAN_ELEMENT_THEORY":"SGP4","PERIOD":"95.592","MEAN_ANOMALY":"299.5076","RA_OF_ASC_NODE":"166.1993","TLE_LINE1":"1 46759U 20074W   22204.37479700  .00003773  00000-0  27201-3 0  9996","PERIAPSIS":"546.183","MEAN_MOTION_DDOT":"0.0000000000000","CENTER_NAME":"EARTH","EPHEMERIS_TYPE":"0","REF_FRAME":"TEME","FILE":"3520423","APOAPSIS":"548.223","REV_AT_EPOCH":"9670","SITE":"AFETR","EPOCH":"2022-07-23T08:59:42.460800","TIME_SYSTEM":"UTC","BSTAR":"0.00027201000000","MEAN_MOTION":"15.06403396","LAUNCH_DATE":"2020-10-24","ELEMENT_SET_NO":"999","OBJECT_TYPE":"PAYLOAD","CLASSIFICATION_TYPE":"U","DECAY_DATE":null,"OBJECT_NAME":"STARLINK-1833","ARG_OF_PERICENTER":"60.6060","NORAD_CAT_ID":"46759","RCS_SIZE":"LARGE","OBJECT_ID":"2020-074W","INCLINATION":"53.0544","SEMIMAJOR_AXIS":"6925.338","COUNTRY_CODE":"US","GP_ID":"208706674"},{"LAUNCH_DATE":"2020-10-24","ELEMENT_SET_NO":"999","OBJECT_TYPE":"PAYLOAD","CLASSIFICATION_TYPE":"U","DECAY_DATE":null,"OBJECT_NAME":"STARLINK-1896","ARG_OF_PERICENTER":"64.2622","RCS_SIZE":"LARGE","NORAD_CAT_ID":"46760","OBJECT_ID":"2020-074X","INCLINATION":"53.0560","SEMIMAJOR_AXIS":"6925.369","COUNTRY_CODE":"US","GP_ID":"208736981","ECCENTRICITY":"0.00015300","MEAN_MOTION_DOT":"-0.00000683","TLE_LINE2":"2 46760  53.0560 164.0662 0001530  64.2622 295.8525 15.06393345 96785","MEAN_ELEMENT_THEORY":"SGP4","PERIOD":"95.593","MEAN_ANOMALY":"295.8525","RA_OF_ASC_NODE":"164.0662","TLE_LINE1":"1 46760U 20074X   22204.85027743 -.00000683  00000-0 -26958-4 0  9995","PERIAPSIS":"546.174","MEAN_MOTION_DDOT":"0.0000000000000","CENTER_NAME":"EARTH","EPHEMERIS_TYPE":"0","REF_FRAME":"TEME","FILE":"3520602","APOAPSIS":"548.294","REV_AT_EPOCH":"9678","SITE":"AFETR","EPOCH":"2022-07-23T20:24:23.969952","TIME_SYSTEM":"UTC","BSTAR":"-0.00002695800000","MEAN_MOTION":"15.06393345"},{"SEMIMAJOR_AXIS":"6817.913","COUNTRY_CODE":"US","GP_ID":"208707671","ARG_OF_PERICENTER":"61.5908","NORAD_CAT_ID":"46763","RCS_SIZE":"LARGE","OBJECT_ID":"2020-074AA","INCLINATION":"53.0521","CLASSIFICATION_TYPE":"U","DECAY_DATE":null,"OBJECT_NAME":"STARLINK-1902","LAUNCH_DATE":"2020-10-24","ELEMENT_SET_NO":"999","OBJECT_TYPE":"PAYLOAD","REV_AT_EPOCH":"9739","SITE":"AFETR","EPOCH":"2022-07-23T11:00:29.796480","TIME_SYSTEM":"UTC","BSTAR":"0.00033059000000","MEAN_MOTION":"15.42146223","REF_FRAME":"TEME","APOAPSIS":"441.852","FILE":"3520423","TLE_LINE2":"2 46763  53.0521 118.5203 0003042  61.5908 298.5402 15.42146223 97390","MEAN_ELEMENT_THEORY":"SGP4","PERIOD":"93.376","MEAN_ANOMALY":"298.5402","TLE_LINE1":"1 46763U 20074AA  22204.45867820  .00013995  00000-0  33059-3 0  9999","RA_OF_ASC_NODE":"118.5203","MEAN_MOTION_DDOT":"0.0000000000000","PERIAPSIS":"437.704","CENTER_NAME":"EARTH","EPHEMERIS_TYPE":"0","ECCENTRICITY":"0.00030420","MEAN_MOTION_DOT":"0.00013995"},{"NORAD_CAT_ID":"46764","RCS_SIZE":"LARGE","ARG_OF_PERICENTER":"49.3806","INCLINATION":"53.0530","OBJECT_ID":"2020-074AB","SEMIMAJOR_AXIS":"6925.337","GP_ID":"208705925","COUNTRY_CODE":"US","LAUNCH_DATE":"2020-10-24","OBJECT_TYPE":"PAYLOAD","ELEMENT_SET_NO":"999","CLASSIFICATION_TYPE":"U","DECAY_DATE":null,"OBJECT_NAME":"STARLINK-1903","REF_FRAME":"TEME","APOAPSIS":"548.731","FILE":"3520423","SITE":"AFETR","REV_AT_EPOCH":"9670","EPOCH":"2022-07-23T07:29:28.913280","BSTAR":"0.00039837000000","TIME_SYSTEM":"UTC","MEAN_MOTION":"15.06403636","MEAN_MOTION_DOT":"0.00005658","ECCENTRICITY":"0.00022070","PERIOD":"95.592","MEAN_ELEMENT_THEORY":"SGP4","TLE_LINE2":"2 46764  53.0530 166.4762 0002207  49.3806 310.7374 15.06403636 96709","TLE_LINE1":"1 46764U 20074AB  22204.31214020  .00005658  00000-0  39837-3 0  9990","RA_OF_ASC_NODE":"166.4762","MEAN_ANOMALY":"310.7374","CENTER_NAME":"EARTH","PERIAPSIS":"545.674","MEAN_MOTION_DDOT":"0.0000000000000","EPHEMERIS_TYPE":"0"},{"REV_AT_EPOCH":"9678","SITE":"AFETR","EPOCH":"2022-07-23T21:33:24.118848","BSTAR":"0.00003747300000","TIME_SYSTEM":"UTC","MEAN_MOTION":"15.06388951","REF_FRAME":"TEME","FILE":"3520602","APOAPSIS":"548.312","TLE_LINE2":"2 46765  53.0527 163.8347 0001537  78.0493 282.0668 15.06388951 96789","PERIOD":"95.593","MEAN_ELEMENT_THEORY":"SGP4","MEAN_ANOMALY":"282.0668","TLE_LINE1":"1 46765U 20074AC  22204.89819582  .00000277  00000-0  37473-4 0  9995","RA_OF_ASC_NODE":"163.8347","PERIAPSIS":"546.183","MEAN_MOTION_DDOT":"0.0000000000000","CENTER_NAME":"EARTH","EPHEMERIS_TYPE":"0","ECCENTRICITY":"0.00015370","MEAN_MOTION_DOT":"0.00000277","SEMIMAJOR_AXIS":"6925.382","COUNTRY_CODE":"US","GP_ID":"208736731","ARG_OF_PERICENTER":"78.0493","RCS_SIZE":"LARGE","NORAD_CAT_ID":"46765","OBJECT_ID":"2020-074AC","INCLINATION":"53.0527","CLASSIFICATION_TYPE":"U","DECAY_DATE":null,"OBJECT_NAME":"STARLINK-1906","LAUNCH_DATE":"2020-10-24","ELEMENT_SET_NO":"999","OBJECT_TYPE":"PAYLOAD"},{"SEMIMAJOR_AXIS":"6925.364","COUNTRY_CODE":"US","GP_ID":"208736482","OBJECT_ID":"2020-074AD","INCLINATION":"53.0557","ARG_OF_PERICENTER":"63.7389","RCS_SIZE":"LARGE","NORAD_CAT_ID":"46766","DECAY_DATE":null,"OBJECT_NAME":"STARLINK-1916","CLASSIFICATION_TYPE":"U","LAUNCH_DATE":"2020-10-24","ELEMENT_SET_NO":"999","OBJECT_TYPE":"PAYLOAD","TIME_SYSTEM":"UTC","BSTAR":"0.00012451000000","MEAN_MOTION":"15.06395015","REV_AT_EPOCH":"9675","SITE":"AFETR","EPOCH":"2022-07-23T15:00:37.180512","REF_FRAME":"TEME","APOAPSIS":"548.474","FILE":"3520602","MEAN_MOTION_DDOT":"0.0000000000000","PERIAPSIS":"545.984","CENTER_NAME":"EARTH","EPHEMERIS_TYPE":"0","TLE_LINE2":"2 46766  53.0557 165.0606 0001798  63.7389 296.3784 15.06395015 96752","PERIOD":"95.592","MEAN_ELEMENT_THEORY":"SGP4","MEAN_ANOMALY":"296.3784","TLE_LINE1":"1 46766U 20074AD  22204.62543033  .00001573  00000-0  12451-3 0  9990","RA_OF_ASC_NODE":"165.0606","ECCENTRICITY":"0.00017980","MEAN_MOTION_DOT":"0.00001573"},{"OBJECT_NAME":"STARLINK-1917","DECAY_DATE":null,"CLASSIFICATION_TYPE":"U","ELEMENT_SET_NO":"999","OBJECT_TYPE":"PAYLOAD","LAUNCH_DATE":"2020-10-24","COUNTRY_CODE":"US","GP_ID":"208735730","SEMIMAJOR_AXIS":"6925.382","OBJECT_ID":"2020-074AE","INCLINATION":"53.0554","ARG_OF_PERICENTER":"60.6678","NORAD_CAT_ID":"46767","RCS_SIZE":"LARGE","EPHEMERIS_TYPE":"0","MEAN_MOTION_DDOT":"0.0000000000000","PERIAPSIS":"545.916","CENTER_NAME":"EARTH","MEAN_ANOMALY":"299.4503","TLE_LINE1":"1 46767U 20074AE  22204.85396600 -.00000857  00000-0 -38637-4 0  9993","RA_OF_ASC_NODE":"164.0498","TLE_LINE2":"2 46767  53.0554 164.0498 0001921  60.6678 299.4503 15.06389208 96786","MEAN_ELEMENT_THEORY":"SGP4","PERIOD":"95.593","ECCENTRICITY":"0.00019210","MEAN_MOTION_DOT":"-0.00000857","MEAN_MOTION":"15.06389208","BSTAR":"-0.00003863700000","TIME_SYSTEM":"UTC","EPOCH":"2022-07-23T20:29:42.662400","REV_AT_EPOCH":"9678","SITE":"AFETR","FILE":"3520602","APOAPSIS":"548.577","REF_FRAME":"TEME"},{"OBJECT_ID":"2020-074AF","INCLINATION":"53.0538","ARG_OF_PERICENTER":"63.9330","RCS_SIZE":"LARGE","NORAD_CAT_ID":"46768","SEMIMAJOR_AXIS":"6925.378","COUNTRY_CODE":"US","GP_ID":"208735980","LAUNCH_DATE":"2020-10-24","ELEMENT_SET_NO":"999","OBJECT_TYPE":"PAYLOAD","DECAY_DATE":null,"OBJECT_NAME":"STARLINK-1918","CLASSIFICATION_TYPE":"U","REF_FRAME":"TEME","APOAPSIS":"548.438","FILE":"3520602","BSTAR":"0.00015927000000","TIME_SYSTEM":"UTC","MEAN_MOTION":"15.06390334","REV_AT_EPOCH":"9674","SITE":"AFETR","EPOCH":"2022-07-23T14:12:51.742656","ECCENTRICITY":"0.00017250","MEAN_MOTION_DOT":"0.00002091","PERIAPSIS":"546.049","MEAN_MOTION_DDOT":"0.0000000000000","CENTER_NAME":"EARTH","EPHEMERIS_TYPE":"0","TLE_LINE2":"2 46768  53.0538 165.2144 0001725  63.9330 296.1837 15.06390334 96745","MEAN_ELEMENT_THEORY":"SGP4","PERIOD":"95.593","MEAN_ANOMALY":"296.1837","TLE_LINE1":"1 46768U 20074AF  22204.59226554  .00002091  00000-0  15927-3 0  9991","RA_OF_ASC_NODE":"165.2144"}];
